NORAD_CAT_ID,OBJECT_NAME,OBJECT_TYPE,EPOCH,MEAN_MOTION,ECCENTRICITY,INCLINATION,RA_OF_ASC_NODE,ARG_OF_PERICENTER,MEAN_ANOMALY,BSTAR,MEAN_MOTION_DOT,MEAN_MOTION_DDOT,TLE_LINE0,TLE_LINE1,TLE_LINE2,SEMIMAJOR_AXIS,PERIOD,APOGEE,PERIGEE,DECAYED
56789.0,STARLINK-6325,PAYLOAD,2024-02-12 14:00:01,15.28419233,0.0003366,69.9993,51.8113,278.5038,135.0908,-0.037397,-0.00959773,0.0,0 STARLINK-6325,1 56789U 23078Y   24043.58334491 -.00959773  00000-0 -37397-1 0  9997,2 56789  69.9993  51.8113 0003366 278.5038 135.0908 15.28419233  6046,6858.674,94.215,482.848,478.231,0.0
56789.0,STARLINK-6325,PAYLOAD,2024-02-12 22:00:00,15.27714974,0.0003304,69.9998,50.9314,272.2031,174.5498,-0.034196,-0.00855579,0.0,0 STARLINK-6325,1 56789U 23078Y   24043.91667824 -.00855579  00000-0 -34196-1 0  9996,2 56789  69.9998  50.9314 0003304 272.2031 174.5498 15.27714974  6030,6860.782,94.258,484.914,480.38,0.0
56789.0,STARLINK-6325,PAYLOAD,2024-02-13 14:00:01,15.26463467,0.0003243,69.9998,49.1742,278.0825,232.5999,-0.03984,-0.00962953,0.0,0 STARLINK-6325,1 56789U 23078Y   24044.58334491 -.00962953  00000-0 -39840-1 0  9997,2 56789  69.9998  49.1742 0003243 278.0825 232.5999 15.26463467 40791,6864.531,94.336,488.623,484.17,0.0
56789.0,STARLINK-6325,PAYLOAD,2024-02-13 22:00:00,15.25764032,0.0003236,70.0001,48.2971,270.521,270.97,-0.036657,-0.00863653,0.0,0 STARLINK-6325,1 56789U 23078Y   24044.91667824 -.00863653  00000-0 -36657-1 0  9993,2 56789  70.0001  48.2971 0003236 270.5210 270.9700 15.25764032  6047,6866.629,94.379,490.716,486.272,0.0
56789.0,STARLINK-6325,PAYLOAD,2024-02-14 06:00:00,15.25136661,0.0003274,70.0004,47.4207,273.9804,297.5255,-0.039955,-0.00930294,0.0,0 STARLINK-6325,1 56789U 23078Y   24045.25001157 -.00930294  00000-0 -39955-1 0  9992,2 56789  70.0004  47.4207 0003274 273.9804 297.5255 15.25136661 40905,6868.512,94.418,492.626,488.128,0.0
56789.0,STARLINK-6325,PAYLOAD,2024-02-14 14:00:01,15.24507413,0.0003302,70.0001,46.545,275.0876,325.642,-0.042419,-0.00966299,0.0,0 STARLINK-6325,1 56789U 23078Y   24045.58334491 -.00966299  00000-0 -42419-1 0  9991,2 56789  70.0001  46.5450 0003302 275.0876 325.6420 15.24507413  6035,6870.402,94.457,494.536,489.998,0.0
56789.0,STARLINK-6325,PAYLOAD,2024-02-14 22:00:01,15.23809935,0.0003319,70.0004,45.6705,268.4533,0.8005,-0.039023,-0.00866729,0.0,0 STARLINK-6325,1 56789U 23078Y   24045.91668981 -.00866729  00000-0 -39023-1 0  9996,2 56789  70.0004  45.6705 0003319 268.4533   0.8005 15.23809935  5982,6872.498,94.5,496.644,492.082,0.0
56789.0,STARLINK-6325,PAYLOAD,2024-02-15 06:00:02,15.23178798,0.0003344,70.0006,44.7968,272.8214,24.1016,-0.042225,-0.00927451,0.0,0 STARLINK-6325,1 56789U 23078Y   24046.25002315 -.00927451  00000-0 -42225-1 0  9995,2 56789  70.0006  44.7968 0003344 272.8214  24.1016 15.23178798 41053,6874.397,94.539,498.56,493.963,0.0
56789.0,STARLINK-6325,PAYLOAD,2024-02-15 14:00:01,15.22551082,0.0003376,70.0003,43.9237,274.7317,49.0052,-0.045083,-0.00968629,0.0,0 STARLINK-6325,1 56789U 23078Y   24046.58334491 -.00968629  00000-0 -45083-1 0  9991,2 56789  70.0003  43.9237 0003376 274.7317  49.0052 15.22551082  6035,6876.286,94.578,500.472,495.829,0.0
56789.0,STARLINK-6325,PAYLOAD,2024-02-15 22:00:00,15.21853673,0.0003391,70.0006,43.0518,269.0807,80.7685,-0.041411,-0.00867774,0.0,0 STARLINK-6325,1 56789U 23078Y   24046.91667824 -.00867774  00000-0 -41411-1 0  9997,2 56789  70.0006  43.0518 0003391 269.0807  80.7685 15.21853673  6088,6878.387,94.621,502.584,497.919,0.0
56789.0,STARLINK-6325,PAYLOAD,2024-02-16 14:00:01,15.20592929,0.0003326,70.0004,41.3102,275.4703,124.2336,-0.047643,-0.00966394,0.0,0 STARLINK-6325,1 56789U 23078Y   24047.58334491 -.00966394  00000-0 -47643-1 0  9993,2 56789  70.0004  41.3102 0003326 275.4703 124.2336 15.20592929 41258,6882.188,94.7,506.342,501.764,0.0
56789.0,STARLINK-6325,PAYLOAD,2024-02-16 22:00:00,15.19900401,0.0003306,70.0006,40.4408,269.6858,153.7816,-0.044146,-0.00883591,0.0,0 STARLINK-6325,1 56789U 23078Y   24047.91667824 -.00883591  00000-0 -44146-1 0  9991,2 56789  70.0006  40.4408 0003306 269.6858 153.7816 15.19900401  6058,6884.278,94.743,508.419,503.867,0.0
56789.0,STARLINK-6325,PAYLOAD,2024-02-17 06:00:00,15.1926378,0.0003295,70.0007,39.5722,273.9559,172.4899,-0.047256,-0.00925236,0.0,0 STARLINK-6325,1 56789U 23078Y   24048.25001157 -.00925236  00000-0 -47256-1 0  9998,2 56789  70.0007  39.5722 0003295 273.9559 172.4899 15.19263780 41353,6886.201,94.783,510.335,505.797,0.0
56789.0,STARLINK-6325,PAYLOAD,2024-02-17 14:00:01,15.18635285,0.000321,70.0003,38.7045,274.6354,193.9947,-0.050337,-0.0096454,0.0,0 STARLINK-6325,1 56789U 23078Y   24048.58334491 -.00964540  00000-0 -50337-1 0  9999,2 56789  70.0003  38.7045 0003210 274.6354 193.9947 15.18635285  5990,6888.101,94.822,512.177,507.755,0.0
56789.0,STARLINK-6325,PAYLOAD,2024-02-17 22:00:00,15.1794939,0.0003173,70.0005,37.8378,268.3311,221.7141,-0.047176,-0.00891645,0.0,0 STARLINK-6325,1 56789U 23078Y   24048.91667824 -.00891645  00000-0 -47176-1 0  9997,2 56789  70.0005  37.8378 0003173 268.3311 221.7141 15.17949390  6050,6890.176,94.865,514.227,509.855,0.0
56789.0,STARLINK-6325,PAYLOAD,2024-02-18 14:00:01,15.1667926,0.0003098,70.0002,36.1066,271.9182,258.5972,-0.053364,-0.0096632,0.0,0 STARLINK-6325,1 56789U 23078Y   24049.58334491 -.00966320  00000-0 -53364-1 0  9991,2 56789  70.0002  36.1066 0003098 271.9182 258.5972 15.16679260 41565,6894.022,94.944,518.023,513.751,0.0
56789.0,STARLINK-6325,PAYLOAD,2024-02-18 22:00:00,15.15996117,0.0003119,70.0004,35.2425,265.5598,284.0227,-0.050223,-0.00897069,0.0,0 STARLINK-6325,1 56789U 23078Y   24049.91667824 -.00897069  00000-0 -50223-1 0  9991,2 56789  70.0004  35.2425 0003119 265.5598 284.0227 15.15996117  6054,6896.093,94.987,520.109,515.807,0.0
56789.0,STARLINK-6325,PAYLOAD,2024-02-19 06:00:00,15.1534219,0.0003155,70.0004,34.379,270.3738,297.498,-0.051992,-0.009105,0.0,0 STARLINK-6325,1 56789U 23078Y   24050.25001157 -.00910500  00000-0 -51992-1 0  9991,2 56789  70.0004  34.3790 0003155 270.3738 297.4980 15.15342190 41665,6898.077,95.028,522.118,517.766,0.0
56789.0,STARLINK-6325,PAYLOAD,2024-02-19 14:00:01,15.14721573,0.0003132,70.0001,33.5165,269.213,316.1479,-0.056441,-0.00966548,0.0,0 STARLINK-6325,1 56789U 23078Y   24050.58334491 -.00966548  00000-0 -56441-1 0  9994,2 56789  70.0001  33.5165 0003132 269.2130 316.1479 15.14721573  5967,6899.961,95.067,523.987,519.665,0.0
56789.0,STARLINK-6325,PAYLOAD,2024-02-19 22:00:00,15.14041856,0.0003188,70.0003,32.6549,263.4877,338.5915,-0.053277,-0.00900048,0.0,0 STARLINK-6325,1 56789U 23078Y   24050.91667824 -.00900048  00000-0 -53277-1 0  9997,2 56789  70.0003  32.6549 0003188 263.4877 338.5915 15.14041856  6020,6902.026,95.11,526.091,521.691,0.0
56789.0,STARLINK-6325,PAYLOAD,2024-02-20 06:00:00,15.13383619,0.000321,70.0004,31.7942,268.893,349.1302,-0.054702,-0.00906632,0.0,0 STARLINK-6325,1 56789U 23078Y   24051.25001157 -.00906632  00000-0 -54702-1 0  9995,2 56789  70.0004  31.7942 0003210 268.8930 349.1302 15.13383619 41812,6904.027,95.151,528.108,523.676,0.0
56789.0,STARLINK-6325,PAYLOAD,2024-02-20 14:00:01,15.12763379,0.0003212,70.0,30.9343,267.7644,5.4017,-0.059587,-0.00965682,0.0,0 STARLINK-6325,1 56789U 23078Y   24051.58334491 -.00965682  00000-0 -59587-1 0  9997,2 56789  70.0000  30.9343 0003212 267.7644   5.4017 15.12763379  5804,6905.914,95.19,529.997,525.561,0.0
56789.0,STARLINK-6325,PAYLOAD,2024-02-21 00:00:00,15.11946814,0.0003359,70.0005,29.8607,265.0849,115.9145,-0.0593,-0.00941297,0.0,0 STARLINK-6325,1 56789U 23078Y   24052.00001157 -.00941297  00000-0 -59300-1 0  9994,2 56789  70.0005  29.8607 0003359 265.0849 115.9145 15.11946814  5871,6908.4,95.241,532.586,527.945,0.0
56789.0,STARLINK-6325,PAYLOAD,2024-02-21 06:00:00,15.11425869,0.0003306,70.0004,29.2172,268.4552,32.6788,-0.057671,-0.00905018,0.0,0 STARLINK-6325,1 56789U 23078Y   24052.25001157 -.00905018  00000-0 -57671-1 0  9991,2 56789  70.0004  29.2172 0003306 268.4552  32.6788 15.11425869 41961,6909.988,95.274,534.137,529.568,0.0
56789.0,STARLINK-6325,PAYLOAD,2024-02-21 14:00:01,15.10804588,0.0003271,70.0001,28.3599,267.2344,46.6963,-0.062788,-0.00963613,0.0,0 STARLINK-6325,1 56789U 23078Y   24052.58334491 -.00963613  00000-0 -62788-1 0  9997,2 56789  70.0001  28.3599 0003271 267.2344  46.6963 15.10804588  5966,6911.882,95.313,536.008,531.486,0.0
56789.0,STARLINK-6325,PAYLOAD,2024-02-21 22:00:00,15.10133276,0.0003318,70.0005,27.5036,262.5667,63.3849,-0.059892,-0.00906641,0.0,0 STARLINK-6325,1 56789U 23078Y   24052.91667824 -.00906641  00000-0 -59892-1 0  9993,2 56789  70.0005  27.5036 0003318 262.5667  63.3849 15.10133276 42065,6913.93,95.356,538.089,533.501,0.0
56789.0,STARLINK-6325,PAYLOAD,2024-02-22 14:00:01,15.08845178,0.0003299,70.0003,25.7932,267.1242,80.5306,-0.066024,-0.00960195,0.0,0 STARLINK-6325,1 56789U 23078Y   24053.58334491 -.00960195  00000-0 -66024-1 0  9997,2 56789  70.0003  25.7932 0003299 267.1242  80.5306 15.08845178 42164,6917.865,95.437,542.012,537.447,0.0
56789.0,STARLINK-6325,PAYLOAD,2024-02-22 22:00:00,15.08179904,0.000333,70.0008,24.9396,262.8516,94.4752,-0.063595,-0.00911926,0.0,0 STARLINK-6325,1 56789U 23078Y   24053.91667824 -.00911926  00000-0 -63595-1 0  9991,2 56789  70.0008  24.9396 0003330 262.8516  94.4752 15.08179904  6038,6919.899,95.479,544.068,539.459,0.0
56789.0,STARLINK-6325,PAYLOAD,2024-02-23 06:00:00,15.07510577,0.0003313,70.0008,24.0866,268.8001,97.4332,-0.063886,-0.00900389,0.0,0 STARLINK-6325,1 56789U 23078Y   24054.25001157 -.00900389  00000-0 -63886-1 0  9994,2 56789  70.0008  24.0866 0003313 268.8001  97.4332 15.07510577 42263,6921.947,95.522,546.105,541.519,0.0
56789.0,STARLINK-6325,PAYLOAD,2024-02-23 14:00:01,15.06885692,0.0003303,70.0007,23.2344,266.983,107.3555,-0.069339,-0.00956157,0.0,0 STARLINK-6325,1 56789U 23078Y   24054.58334491 -.00956157  00000-0 -69339-1 0  9993,2 56789  70.0007  23.2344 0003303 266.9830 107.3555 15.06885692  5991,6923.86,95.561,548.012,543.438,0.0
